CCSDS_OMM_VERS = 2.0
CREATION_DATE  = 
ORIGINATOR     = 

OBJECT_NAME    = SL-16 R/B
OBJECT_ID      = 1993-016B
CENTER_NAME    = EARTH
REF_FRAME      = TEME
TIME_SYSTEM    = UTC
MEAN_ELEMENT_THEORY = SGP/SGP4

EPOCH          = 2025-12-26T03:12:56.156256
MEAN_MOTION    = 14.15293346
ECCENTRICITY   = .0008041
INCLINATION    = 71.0084
RA_OF_ASC_NODE = 9.6712
ARG_OF_PERICENTER = 71.0438
MEAN_ANOMALY   = 289.1555

EPHEMERIS_TYPE = 0
CLASSIFICATION_TYPE = U
NORAD_CAT_ID   = 22566
ELEMENT_SET_NO = 999
REV_AT_EPOCH   = 69176
BSTAR          = .15484E-3
MEAN_MOTION_DOT = .254E-5
MEAN_MOTION_DDOT = 0

CCSDS_OMM_VERS = 2.0
CREATION_DATE  = 
ORIGINATOR     = 

OBJECT_NAME    = COSMOS 2242
OBJECT_ID      = 1993-024A
CENTER_NAME    = EARTH
REF_FRAME      = TEME
TIME_SYSTEM    = UTC
MEAN_ELEMENT_THEORY = SGP/SGP4

EPOCH          = 2025-12-25T22:40:52.205952
MEAN_MOTION    = 14.96159546
ECCENTRICITY   = .0015984
INCLINATION    = 82.5196
RA_OF_ASC_NODE = 337.2219
ARG_OF_PERICENTER = 187.1214
MEAN_ANOMALY   = 172.9783

EPHEMERIS_TYPE = 0
CLASSIFICATION_TYPE = U
NORAD_CAT_ID   = 22626
ELEMENT_SET_NO = 999
REV_AT_EPOCH   = 76936
BSTAR          = .21417E-3
MEAN_MOTION_DOT = .2442E-4
MEAN_MOTION_DDOT = 0

CCSDS_OMM_VERS = 2.0
CREATION_DATE  = 
ORIGINATOR     = 

OBJECT_NAME    = SL-16 R/B
OBJECT_ID      = 1993-059B
CENTER_NAME    = EARTH
REF_FRAME      = TEME
TIME_SYSTEM    = UTC
MEAN_ELEMENT_THEORY = SGP/SGP4

EPOCH          = 2025-12-25T22:20:34.867104
MEAN_MOTION    = 14.17216397
ECCENTRICITY   = .0018607
INCLINATION    = 70.9885
RA_OF_ASC_NODE = 166.6689
ARG_OF_PERICENTER = 317.0496
MEAN_ANOMALY   = 42.9173

EPHEMERIS_TYPE = 0
CLASSIFICATION_TYPE = U
NORAD_CAT_ID   = 22803
ELEMENT_SET_NO = 999
REV_AT_EPOCH   = 66908
BSTAR          = .17418E-3
MEAN_MOTION_DOT = .304E-5
MEAN_MOTION_DDOT = 0

CCSDS_OMM_VERS = 2.0
CREATION_DATE  = 
ORIGINATOR     = 

OBJECT_NAME    = ARIANE 40 R/B
OBJECT_ID      = 1993-061H
CENTER_NAME    = EARTH
REF_FRAME      = TEME
TIME_SYSTEM    = UTC
MEAN_ELEMENT_THEORY = SGP/SGP4

EPOCH          = 2025-12-26T03:58:55.361856
MEAN_MOTION    = 14.32810181
ECCENTRICITY   = .0011555
INCLINATION    = 98.5059
RA_OF_ASC_NODE = 65.4506
ARG_OF_PERICENTER = 138.1483
MEAN_ANOMALY   = 222.0586

EPHEMERIS_TYPE = 0
CLASSIFICATION_TYPE = U
NORAD_CAT_ID   = 22830
ELEMENT_SET_NO = 999
REV_AT_EPOCH   = 68357
BSTAR          = .11149E-3
MEAN_MOTION_DOT = .261E-5
MEAN_MOTION_DDOT = 0

CCSDS_OMM_VERS = 2.0
CREATION_DATE  = 
ORIGINATOR     = 

OBJECT_NAME    = COSMOS 2278
OBJECT_ID      = 1994-023A
CENTER_NAME    = EARTH
REF_FRAME      = TEME
TIME_SYSTEM    = UTC
MEAN_ELEMENT_THEORY = SGP/SGP4

EPOCH          = 2025-12-26T02:45:47.399616
MEAN_MOTION    = 14.14348659
ECCENTRICITY   = .0007773
INCLINATION    = 71.0535
RA_OF_ASC_NODE = 329.0263
ARG_OF_PERICENTER = 155.5439
MEAN_ANOMALY   = 204.6054

EPHEMERIS_TYPE = 0
CLASSIFICATION_TYPE = U
NORAD_CAT_ID   = 23087
ELEMENT_SET_NO = 999
REV_AT_EPOCH   = 63440
BSTAR          = .7173E-4
MEAN_MOTION_DOT = .9E-6
MEAN_MOTION_DDOT = 0

CCSDS_OMM_VERS = 2.0
CREATION_DATE  = 
ORIGINATOR     = 

OBJECT_NAME    = SL-16 R/B
OBJECT_ID      = 1994-023B
CENTER_NAME    = EARTH
REF_FRAME      = TEME
TIME_SYSTEM    = UTC
MEAN_ELEMENT_THEORY = SGP/SGP4

EPOCH          = 2025-12-26T01:17:17.621088
MEAN_MOTION    = 14.14999304
ECCENTRICITY   = .0002109
INCLINATION    = 70.9975
RA_OF_ASC_NODE = 225.5270
ARG_OF_PERICENTER = 2.7967
MEAN_ANOMALY   = 357.3167

EPHEMERIS_TYPE = 0
CLASSIFICATION_TYPE = U
NORAD_CAT_ID   = 23088
ELEMENT_SET_NO = 999
REV_AT_EPOCH   = 63567
BSTAR          = -.92517E-4
MEAN_MOTION_DOT = -.227E-5
MEAN_MOTION_DDOT = 0

CCSDS_OMM_VERS = 2.0
CREATION_DATE  = 
ORIGINATOR     = 

OBJECT_NAME    = SL-16 R/B
OBJECT_ID      = 1994-074B
CENTER_NAME    = EARTH
REF_FRAME      = TEME
TIME_SYSTEM    = UTC
MEAN_ELEMENT_THEORY = SGP/SGP4

EPOCH          = 2025-12-26T01:35:41.184096
MEAN_MOTION    = 14.79304112
ECCENTRICITY   = .0008042
INCLINATION    = 97.7189
RA_OF_ASC_NODE = 28.8406
ARG_OF_PERICENTER = 99.4357
MEAN_ANOMALY   = 314.6399

EPHEMERIS_TYPE = 0
CLASSIFICATION_TYPE = U
NORAD_CAT_ID   = 23343
ELEMENT_SET_NO = 999
REV_AT_EPOCH   = 67636
BSTAR          = .68289E-4
MEAN_MOTION_DOT = .459E-5
MEAN_MOTION_DDOT = 0

CCSDS_OMM_VERS = 2.0
CREATION_DATE  = 
ORIGINATOR     = 

OBJECT_NAME    = SL-16 R/B
OBJECT_ID      = 1994-077B
CENTER_NAME    = EARTH
REF_FRAME      = TEME
TIME_SYSTEM    = UTC
MEAN_ELEMENT_THEORY = SGP/SGP4

EPOCH          = 2025-12-25T20:26:54.546144
MEAN_MOTION    = 14.15552036
ECCENTRICITY   = .00050464
INCLINATION    = 70.9822
RA_OF_ASC_NODE = 147.8288
ARG_OF_PERICENTER = 274.6288
MEAN_ANOMALY   = 85.4258

EPHEMERIS_TYPE = 0
CLASSIFICATION_TYPE = U
NORAD_CAT_ID   = 23405
ELEMENT_SET_NO = 999
REV_AT_EPOCH   = 60578
BSTAR          = -.78941191E-4
MEAN_MOTION_DOT = -.202E-5
MEAN_MOTION_DDOT = 0

CCSDS_OMM_VERS = 2.0
CREATION_DATE  = 
ORIGINATOR     = 

OBJECT_NAME    = ARIANE 40+ R/B
OBJECT_ID      = 1995-021B
CENTER_NAME    = EARTH
REF_FRAME      = TEME
TIME_SYSTEM    = UTC
MEAN_ELEMENT_THEORY = SGP/SGP4

EPOCH          = 2025-12-26T03:27:13.913856
MEAN_MOTION    = 14.39705332
ECCENTRICITY   = .000676
INCLINATION    = 98.4633
RA_OF_ASC_NODE = 67.5702
ARG_OF_PERICENTER = 12.4944
MEAN_ANOMALY   = 17.6155

EPHEMERIS_TYPE = 0
CLASSIFICATION_TYPE = U
NORAD_CAT_ID   = 23561
ELEMENT_SET_NO = 999
REV_AT_EPOCH   = 60866
BSTAR          = .11103E-3
MEAN_MOTION_DOT = .304E-5
MEAN_MOTION_DDOT = 0

CCSDS_OMM_VERS = 2.0
CREATION_DATE  = 
ORIGINATOR     = 

OBJECT_NAME    = SL-16 R/B
OBJECT_ID      = 1995-058B
CENTER_NAME    = EARTH
REF_FRAME      = TEME
TIME_SYSTEM    = UTC
MEAN_ELEMENT_THEORY = SGP/SGP4

EPOCH          = 2025-12-26T03:18:46.827072
MEAN_MOTION    = 14.15481322
ECCENTRICITY   = .0014598
INCLINATION    = 71.0217
RA_OF_ASC_NODE = 334.6740
ARG_OF_PERICENTER = 237.5911
MEAN_ANOMALY   = 122.3800

EPHEMERIS_TYPE = 0
CLASSIFICATION_TYPE = U
NORAD_CAT_ID   = 23705
ELEMENT_SET_NO = 999
REV_AT_EPOCH   = 55744
BSTAR          = -.3951E-4
MEAN_MOTION_DOT = -.125E-5
MEAN_MOTION_DDOT = 0

CCSDS_OMM_VERS = 2.0
CREATION_DATE  = 
ORIGINATOR     = 

OBJECT_NAME    = ORBVIEW 2 (SEASTAR)
OBJECT_ID      = 1997-037A
CENTER_NAME    = EARTH
REF_FRAME      = TEME
TIME_SYSTEM    = UTC
MEAN_ELEMENT_THEORY = SGP/SGP4

EPOCH          = 2025-12-26T00:28:44.359104
MEAN_MOTION    = 14.35426208
ECCENTRICITY   = .0001215
INCLINATION    = 98.8463
RA_OF_ASC_NODE = 157.4292
ARG_OF_PERICENTER = 282.0418
MEAN_ANOMALY   = 78.0630

EPHEMERIS_TYPE = 0
CLASSIFICATION_TYPE = U
NORAD_CAT_ID   = 24883
ELEMENT_SET_NO = 999
REV_AT_EPOCH   = 49790
BSTAR          = .12029E-3
MEAN_MOTION_DOT = .299E-5
MEAN_MOTION_DDOT = 0

