SL-16 R/B               
1 22566U 93016B   25360.13398329  .00000254  00000+0  15484-3 0  9999
2 22566  71.0084   9.6712 0008041  71.0438 289.1555 14.15293346691766
COSMOS 2242             
1 22626U 93024A   25359.94504868  .00002442  00000+0  21417-3 0  9993
2 22626  82.5196 337.2219 0015984 187.1214 172.9783 14.96159546769367
SL-16 R/B               
1 22803U 93059B   25359.93095911  .00000304  00000+0  17418-3 0  9992
2 22803  70.9885 166.6689 0018607 317.0496  42.9173 14.17216397669084
ARIANE 40 R/B           
1 22830U 93061H   25360.16591854  .00000261  00000+0  11149-3 0  9996
2 22830  98.5059  65.4506 0011555 138.1483 222.0586 14.32810181683577
COSMOS 2278             
1 23087U 94023A   25360.11513194  .00000090  00000+0  71730-4 0  9999
2 23087  71.0535 329.0263 0007773 155.5439 204.6054 14.14348659634407
SL-16 R/B               
1 23088U 94023B   25360.05367617 -.00000227  00000+0 -92517-4 0  9990
2 23088  70.9975 225.5270 0002109   2.7967 357.3167 14.14999304635679
SL-16 R/B               
1 23343U 94074B   25360.06644889  .00000459  00000+0  68289-4 0  9994
2 23343  97.7189  28.8406 0008042  99.4357 314.6399 14.79304112676362
SL-16 R/B               
1 23405U 94077B   25359.85202021 -.00000202  00000+0 -78941-4 0  9993
2 23405  70.9822 147.8288 0005046 274.6288  85.4258 14.15552036605784
ARIANE 40+ R/B          
1 23561U 95021B   25360.14391104  .00000304  00000+0  11103-3 0  9998
2 23561  98.4633  67.5702 0006760  12.4944  17.6155 14.39705332608660
SL-16 R/B               
1 23705U 95058B   25360.13804198 -.00000125  00000+0 -39510-4 0  9995
2 23705  71.0217 334.6740 0014598 237.5911 122.3800 14.15481322557441
ORBVIEW 2 (SEASTAR)     
1 24883U 97037A   25360.01995786  .00000299  00000+0  12029-3 0  9998
2 24883  98.8463 157.4292 0001215 282.0418  78.0630 14.35426208497907
